[{"OBJECT_NAME":"GLOBALSTAR M062","OBJECT_ID":"2000-008B","EPOCH":"2026-03-28T20:04:46.647264","MEAN_MOTION":12.43483867,"ECCENTRICITY":0.0007559,"INCLINATION":51.9876,"RA_OF_ASC_NODE":338.7008,"ARG_OF_PERICENTER":6.8262,"MEAN_ANOMALY":69.3725,"EPHEMERIS_TYPE":0,"CLASSIFICATION_TYPE":"U","NORAD_CAT_ID":26082,"ELEMENT_SET_NO":999,"REV_AT_EPOCH":53203,"BSTAR":-7.1822e-5,"MEAN_MOTION_DOT":-1.08e-6,"MEAN_MOTION_DDOT":0},{"OBJECT_NAME":"GLOBALSTAR M060","OBJECT_ID":"2000-008C","EPOCH":"2026-03-28T17:33:24.912576","MEAN_MOTION":12.17678669,"ECCENTRICITY":0.0003244,"INCLINATION":52.005,"RA_OF_ASC_NODE":339.2776,"ARG_OF_PERICENTER":358.5569,"MEAN_ANOMALY":35.217,"EPHEMERIS_TYPE":0,"CLASSIFICATION_TYPE":"U","NORAD_CAT_ID":26083,"ELEMENT_SET_NO":999,"REV_AT_EPOCH":18703,"BSTAR":0.0019774,"MEAN_MOTION_DOT":1.08e-6,"MEAN_MOTION_DDOT":0},{"OBJECT_NAME":"GLOBALSTAR M064","OBJECT_ID":"2000-008D","EPOCH":"2026-03-28T13:36:39.711456","MEAN_MOTION":11.88543028,"ECCENTRICITY":0.0001463,"INCLINATION":52.0022,"RA_OF_ASC_NODE":178.0853,"ARG_OF_PERICENTER":220.8947,"MEAN_ANOMALY":139.1776,"EPHEMERIS_TYPE":0,"CLASSIFICATION_TYPE":"U","NORAD_CAT_ID":26084,"ELEMENT_SET_NO":999,"REV_AT_EPOCH":20091,"BSTAR":2.5477e-6,"MEAN_MOTION_DOT":-8.3e-7,"MEAN_MOTION_DDOT":0},{"OBJECT_NAME":"GLOBALSTAR M065","OBJECT_ID":"2007-020A","EPOCH":"2026-03-28T17:39:24.237216","MEAN_MOTION":12.62023135,"ECCENTRICITY":0.0009593,"INCLINATION":51.9887,"RA_OF_ASC_NODE":80.1754,"ARG_OF_PERICENTER":217.7205,"MEAN_ANOMALY":312.8887,"EPHEMERIS_TYPE":0,"CLASSIFICATION_TYPE":"U","NORAD_CAT_ID":31571,"ELEMENT_SET_NO":999,"REV_AT_EPOCH":86933,"BSTAR":0.00031097,"MEAN_MOTION_DOT":-4.8e-7,"MEAN_MOTION_DDOT":0},{"OBJECT_NAME":"GLOBALSTAR M069","OBJECT_ID":"2007-020C","EPOCH":"2026-03-28T19:50:13.104384","MEAN_MOTION":12.23469888,"ECCENTRICITY":0.0001579,"INCLINATION":52.0013,"RA_OF_ASC_NODE":119.5775,"ARG_OF_PERICENTER":344.9929,"MEAN_ANOMALY":185.9651,"EPHEMERIS_TYPE":0,"CLASSIFICATION_TYPE":"U","NORAD_CAT_ID":31573,"ELEMENT_SET_NO":999,"REV_AT_EPOCH":86896,"BSTAR":0.00032868,"MEAN_MOTION_DOT":-5.7e-7,"MEAN_MOTION_DDOT":0},{"OBJECT_NAME":"GLOBALSTAR M072","OBJECT_ID":"2007-020D","EPOCH":"2026-03-28T20:51:12.750048","MEAN_MOTION":11.91656711,"ECCENTRICITY":0.0001605,"INCLINATION":51.9948,"RA_OF_ASC_NODE":314.0784,"ARG_OF_PERICENTER":127.5169,"MEAN_ANOMALY":318.8661,"EPHEMERIS_TYPE":0,"CLASSIFICATION_TYPE":"U","NORAD_CAT_ID":31574,"ELEMENT_SET_NO":999,"REV_AT_EPOCH":86540,"BSTAR":0.00049893,"MEAN_MOTION_DOT":-4.8e-7,"MEAN_MOTION_DDOT":0},{"OBJECT_NAME":"GLOBALSTAR M071","OBJECT_ID":"2007-020F","EPOCH":"2026-03-28T16:35:02.979744","MEAN_MOTION":12.1826723,"ECCENTRICITY":4.05e-5,"INCLINATION":52.0046,"RA_OF_ASC_NODE":153.5996,"ARG_OF_PERICENTER":319.0196,"MEAN_ANOMALY":217.7019,"EPHEMERIS_TYPE":0,"CLASSIFICATION_TYPE":"U","NORAD_CAT_ID":31576,"ELEMENT_SET_NO":999,"REV_AT_EPOCH":52961,"BSTAR":0.00076081,"MEAN_MOTION_DOT":-1.4e-7,"MEAN_MOTION_DDOT":0},{"OBJECT_NAME":"GLOBALSTAR M067","OBJECT_ID":"2007-048A","EPOCH":"2026-03-28T18:55:46.471584","MEAN_MOTION":12.40686001,"ECCENTRICITY":8.4e-5,"INCLINATION":51.9727,"RA_OF_ASC_NODE":283.1532,"ARG_OF_PERICENTER":179.02,"MEAN_ANOMALY":194.1015,"EPHEMERIS_TYPE":0,"CLASSIFICATION_TYPE":"U","NORAD_CAT_ID":32263,"ELEMENT_SET_NO":999,"REV_AT_EPOCH":84481,"BSTAR":0.00013286,"MEAN_MOTION_DOT":-7.9e-7,"MEAN_MOTION_DDOT":0},{"OBJECT_NAME":"GLOBALSTAR M070","OBJECT_ID":"2007-048B","EPOCH":"2026-03-28T20:54:39.850848","MEAN_MOTION":12.62332066,"ECCENTRICITY":9.19e-5,"INCLINATION":51.9778,"RA_OF_ASC_NODE":341.229,"ARG_OF_PERICENTER":75.1687,"MEAN_ANOMALY":3.4619,"EPHEMERIS_TYPE":0,"CLASSIFICATION_TYPE":"U","NORAD_CAT_ID":32264,"ELEMENT_SET_NO":999,"REV_AT_EPOCH":84962,"BSTAR":0.00015679,"MEAN_MOTION_DOT":-7.6e-7,"MEAN_MOTION_DDOT":0},{"OBJECT_NAME":"GLOBALSTAR M066","OBJECT_ID":"2007-048C","EPOCH":"2026-03-28T19:16:32.903040","MEAN_MOTION":12.30387643,"ECCENTRICITY":0.0004107,"INCLINATION":51.9587,"RA_OF_ASC_NODE":288.6746,"ARG_OF_PERICENTER":226.0161,"MEAN_ANOMALY":146.9955,"EPHEMERIS_TYPE":0,"CLASSIFICATION_TYPE":"U","NORAD_CAT_ID":32265,"ELEMENT_SET_NO":999,"REV_AT_EPOCH":85033,"BSTAR":0.00017344,"MEAN_MOTION_DOT":-7.4e-7,"MEAN_MOTION_DDOT":0},{"OBJECT_NAME":"GLOBALSTAR M068","OBJECT_ID":"2007-048D","EPOCH":"2026-03-28T15:12:04.629024","MEAN_MOTION":12.62843226,"ECCENTRICITY":0.0001139,"INCLINATION":51.9871,"RA_OF_ASC_NODE":155.1539,"ARG_OF_PERICENTER":67.1667,"MEAN_ANOMALY":97.4597,"EPHEMERIS_TYPE":0,"CLASSIFICATION_TYPE":"U","NORAD_CAT_ID":32266,"ELEMENT_SET_NO":999,"REV_AT_EPOCH":85349,"BSTAR":0.00021598,"MEAN_MOTION_DOT":-6.5e-7,"MEAN_MOTION_DDOT":0},{"OBJECT_NAME":"GLOBALSTAR M079","OBJECT_ID":"2010-054A","EPOCH":"2026-03-28T16:09:56.416032","MEAN_MOTION":12.62264329,"ECCENTRICITY":6.21e-5,"INCLINATION":52.0069,"RA_OF_ASC_NODE":353.7658,"ARG_OF_PERICENTER":101.9277,"MEAN_ANOMALY":266.5841,"EPHEMERIS_TYPE":0,"CLASSIFICATION_TYPE":"U","NORAD_CAT_ID":37188,"ELEMENT_SET_NO":999,"REV_AT_EPOCH":71238,"BSTAR":0.00011924,"MEAN_MOTION_DOT":-8.2e-7,"MEAN_MOTION_DDOT":0},{"OBJECT_NAME":"GLOBALSTAR M074","OBJECT_ID":"2010-054B","EPOCH":"2026-03-28T20:56:58.558272","MEAN_MOTION":12.62266657,"ECCENTRICITY":5.21e-5,"INCLINATION":52.0046,"RA_OF_ASC_NODE":352.4376,"ARG_OF_PERICENTER":70.1137,"MEAN_ANOMALY":4.1191,"EPHEMERIS_TYPE":0,"CLASSIFICATION_TYPE":"U","NORAD_CAT_ID":37189,"ELEMENT_SET_NO":999,"REV_AT_EPOCH":71301,"BSTAR":0.00012558,"MEAN_MOTION_DOT":-8.1e-7,"MEAN_MOTION_DDOT":0},{"OBJECT_NAME":"GLOBALSTAR M076","OBJECT_ID":"2010-054C","EPOCH":"2026-03-28T17:29:06.637920","MEAN_MOTION":12.62270933,"ECCENTRICITY":3.77e-5,"INCLINATION":52.0061,"RA_OF_ASC_NODE":353.0726,"ARG_OF_PERICENTER":93.658,"MEAN_ANOMALY":284.7022,"EPHEMERIS_TYPE":0,"CLASSIFICATION_TYPE":"U","NORAD_CAT_ID":37190,"ELEMENT_SET_NO":999,"REV_AT_EPOCH":71271,"BSTAR":7.8099e-5,"MEAN_MOTION_DOT":-9.0e-7,"MEAN_MOTION_DDOT":0},{"OBJECT_NAME":"GLOBALSTAR M077","OBJECT_ID":"2010-054D","EPOCH":"2026-03-28T14:14:20.210208","MEAN_MOTION":11.68156429,"ECCENTRICITY":6.57e-5,"INCLINATION":52.0011,"RA_OF_ASC_NODE":23.8942,"ARG_OF_PERICENTER":145.9225,"MEAN_ANOMALY":25.287,"EPHEMERIS_TYPE":0,"CLASSIFICATION_TYPE":"U","NORAD_CAT_ID":37191,"ELEMENT_SET_NO":999,"REV_AT_EPOCH":71172,"BSTAR":-0.00027098,"MEAN_MOTION_DOT":-9.3e-7,"MEAN_MOTION_DDOT":0},{"OBJECT_NAME":"GLOBALSTAR M075","OBJECT_ID":"2010-054E","EPOCH":"2026-03-28T14:48:41.638176","MEAN_MOTION":12.62265085,"ECCENTRICITY":5.04e-5,"INCLINATION":51.9969,"RA_OF_ASC_NODE":35.5081,"ARG_OF_PERICENTER":74.0383,"MEAN_ANOMALY":97.7257,"EPHEMERIS_TYPE":0,"CLASSIFICATION_TYPE":"U","NORAD_CAT_ID":37192,"ELEMENT_SET_NO":999,"REV_AT_EPOCH":71176,"BSTAR":4.4548e-5,"MEAN_MOTION_DOT":-9.6e-7,"MEAN_MOTION_DDOT":0},{"OBJECT_NAME":"GLOBALSTAR M073","OBJECT_ID":"2010-054F","EPOCH":"2026-03-28T21:35:18.528864","MEAN_MOTION":12.62265835,"ECCENTRICITY":6.83e-5,"INCLINATION":52.0071,"RA_OF_ASC_NODE":308.6913,"ARG_OF_PERICENTER":106.4816,"MEAN_ANOMALY":268.0388,"EPHEMERIS_TYPE":0,"CLASSIFICATION_TYPE":"U","NORAD_CAT_ID":37193,"ELEMENT_SET_NO":999,"REV_AT_EPOCH":71379,"BSTAR":0.00019035,"MEAN_MOTION_DOT":-7.0e-7,"MEAN_MOTION_DDOT":0}]
